#dP2019  4 29  0  0  0.00000000      96 __u+U IGS08 FIT  IAC
## 2051  86400.00000000   900.00000000 58602 0.0000000000000
+   96   C01C02C03C04C06C07C08C09C10C11C12C13C14C16E01E02E03
+        E04E05E07E08E09E11E12E13E14E15E18E19E21E24E25E26E27
+        E30E31E33E36G01G02G03G04G05G06G07G08G09G10G11G12G13
+        G14G15G16G17G18G19G20G21G22G23G24G25G26G27G28G29G30
+        G31G32J01J02J03R01R02R03R04R05R07R08R09R10R11R13R14
+        R15R16R17R18R19R20R21R22R23R24R26  0  0  0  0  0  0
++        13 12 12 12  8  8  9  8  8  8  7  8  7  8  4  5  4
++         4  5  4  4  4  5  4  4  4  4  4  5  4  4  5  4  4
++         4  4  5  5  3  3  3  4  3  3  3  3  3  3  3  3  3
++         3  3  3  3  3  3  3  3  3  3  3  3  3  3  3  3  3
++         3  3  9  9  9  5  5  5  5  5  5  5  5  5  5  6  5
++         5  6  5  5  6  6  5  5  5  6  8  0  0  0  0  0  0
%c M  cc GPS ccc cccc cccc cccc cccc ccccc ccccc ccccc ccccc
%c cc cc ccc ccc cccc cccc cccc cccc ccccc ccccc ccccc ccccc
%f  1.2500000  1.025000000  0.00000000000  0.000000000000000
%f  0.0000000  0.000000000  0.00000000000  0.000000000000000
%i    0    0    0    0      0      0      0      0         0
%i    0    0    0    0      0      0      0      0         0
/* INFORMATION & ANALYSIS CENTER (IAC)            FINAL DATA
/* S/V CLOCKS ARE ALIGNED TO GPS & GLONASS TIME RESPECTIVELY
/* USING THE BROADCAST EPHEMERIS                            
/* PCV:IGS14_2045 OL/AL:FES2004  NONE     YN ORB:CoN CLK:CoN
*  2019 04 29  0 45  0.00000000
PC01 -32280.284305  27132.582097    258.782164    518.699093
PC02   4403.828092  41903.514569   -963.750368    191.770660
PC03 -14734.921739  39487.090758   -498.234021    219.885244
PC04 -39627.285601  14414.980285   -113.123170   -127.821564
PC06 -24111.973388  32336.037548  11935.144690    753.650498
PC07  -9555.843767  34313.163223  23029.220456   -326.862008
PC08 -15160.127864  17546.914428 -35166.756021    151.635791
PC09 -10509.375700  31786.073434  25643.445039    722.631743
PC10   1639.481710  40745.365463  11627.402156   -705.139930
PC11  16357.177569 -15886.515563  16104.520830   -125.167421
PC12  26124.837496  -1421.190323  -9537.869353    619.693786
PC13   1757.778391  24324.554837 -34315.328439   -681.095500
PC14  15010.104499 -17881.266850  15389.367208    648.733437
PC16 -20547.939747  33160.734067  15789.123052   -644.458808
PE01 -13212.901378   9988.147684  24526.551834   -593.651447
PE02  13186.376114 -10048.307774 -24528.500928     57.971933
PE03  21270.409644 -18313.388000   9388.409686   -160.380218
PE04 -10763.946250  26070.384055   8989.563935   -271.074250
PE05  19378.366674    228.613077  22381.876726     66.078404
PE07  -6159.338948 -18544.880875 -22218.412824   -177.665598
PE08  10534.430195 -26117.281443  -9088.266365   6364.688619
PE09   6220.575890  18419.790511  22335.793673   6455.368366
PE11  16561.760640  14590.270884 -19737.034247   5701.844914
PE12  -6091.003311  15723.850174 -24318.753049   6421.752392
PE13 -16438.586287 -14501.507373  19892.574102    386.294135
PE14 -13962.864108  22328.756042 -14612.725173   -547.004254
PE15   5653.037211 -15744.663561  24429.635123    912.236125
PE18  22378.122506 -15015.201708   2259.366378   -645.396910
PE19 -21580.526591  16929.005397 -11114.566543     -6.769621
PE21 -19288.183758 -11466.199792  19295.471516   -531.389206
PE24  13977.063376  25899.872360  -3091.926951   6108.354139
PE25  19293.793607  11521.897859 -19267.917978   1820.355388
PE26 -28936.115588  -5031.256092   3672.969443   4629.024942
PE27 -13907.682587 -25991.939369   2688.714713    480.488179
PE30   -438.350382 -25402.359530 -15209.924925   4913.742883
PE31    378.900157  25240.067724  15463.115021   -464.302467
PE33 -24492.665466   7770.079841 -14673.154370   -470.427877
PE36  28992.051053   4747.243448  -3665.168185    718.552236
PG01  22067.340709  14339.869088  -4881.819531     -4.453228
PG02  -3463.457556 -17147.395158  20636.015885   -200.517930
PG03  12404.971055  17381.537479  15812.691193    188.318953
PG04  23797.549927  -9694.425556   6738.644414    154.800254
PG05  -2155.547367 -26342.186802    840.184765      1.045798
PG06  10479.194386 -11303.568217  21678.400244    219.013200
PG07  24798.299286   6010.684680  -7940.468934    -13.993093
PG08   7162.682930  13244.215114 -21835.537039   -141.639560
PG09  22847.890435  -5385.541063  12397.883400    420.722804
PG10 -11791.831828  14684.945451 -18585.449912     60.647321
PG11  20121.374528  10824.026622 -13871.453308   -617.333051
PG12 -10411.287860 -18981.772653  15291.490020    247.129498
PG13   2576.409773 -17066.925165 -20286.625569    -65.878592
PG14 -16241.972225  18089.602462  10789.928828    -82.630882
PG15 -10306.439530 -12290.355850 -21429.651051   -315.884474
PG16    224.568940  26312.542411   -630.796919    -36.131814
PG17  21547.769191 -15275.516059   2694.855949     46.411750
PG18  15706.216496  17022.910707 -13608.211738     48.505192
PG19  17861.308971 -17083.079672   9537.998378   -325.199866
PG20 -15238.288956   4813.824121 -21311.175925    524.335423
PG21 -23426.492608   -578.546422 -11561.370105   -203.078130
PG22  10676.835437  22495.103624   9585.468343   -691.987454
PG23  17284.194630   5362.724778  19895.656480   -188.349797
PG24 -20455.851356 -15123.231549  -8354.468477    -65.372852
PG25 -14850.971312  -6346.504284  20924.354649   -750.799289
PG26  -4865.230003  23906.938599  10257.756706    188.067333
PG27  -4569.069705  18368.611284 -18605.886876   -119.325781
PG28  12529.388952 -13546.340216 -18536.100388    767.697044
PG29 -21086.026462    142.136560  16121.165301    214.268546
PG30  20039.821744  -3504.858126 -17151.155654    -95.020190
PG31  -9779.679950  11984.588671  21623.081559     41.808358
PG32 -19584.464808  17344.260661   4261.190742   -111.131379
PJ01 -21240.847184  32099.349519 -12562.870244   -315.439969
PJ02 -23885.709953  22510.501827  31183.583606      2.181557
PJ03 -35349.084180  22284.572955   -921.403757     -0.172833
PR01   7748.715011 -23946.333793  -4087.735066     43.035496
PR02  -4185.078109 -14636.880771 -20439.345619    366.012026
PR03 -12627.076552   2859.416455 -21924.990804     -5.606754
PR04 -13501.367379  19062.766503 -10207.089887    304.284762
PR05  -6849.617184  23682.637412   6526.541687     27.082504
PR07  12824.188590  -3421.408392  21830.132691    -19.083769
PR08  13718.808924 -18527.787423  10982.513215     18.010439
PR09  16229.195263  19491.251752  -3023.897540     66.923561
PR10  16587.877434   9500.443399 -16958.282478     48.672198
PR11   7888.715931  -7904.313687 -22922.804278    -64.433891
PR13 -15863.570616 -19933.669276   1234.822613    -23.009881
PR14 -16758.180527  -9093.444572  16944.805719     38.413852
PR15  -8334.550344   7052.382763  23068.397846    101.635537
PR16   5206.916402  19241.328814  15816.452887      9.917013
PR17 -24757.252376   -101.422569   6212.292663    223.938856
PR18 -21897.669037   7318.000133 -10757.727595     -8.672840
PR19  -7537.352751  10558.675820 -21960.351666    -27.929684
PR20  13340.068990   7940.766348 -20249.913771   -376.424694
PR21  24877.786700   -211.012323  -5591.331861    -45.058491
PR22  20422.647595  -8096.858933  13081.786296    -16.666406
PR23   1653.882976 -10654.669967  23110.628288    224.723803
PR24 -15010.169423  -7147.320944  19313.046012   -179.860630
PR26  10919.252338   8520.867334 -21403.122301     -9.631956
EOF
